[{"OBJECT_NAME":"STARLINK-35969","OBJECT_ID":"2025-265H","EPOCH":"2026-03-09T22:45:08.658432","MEAN_MOTION":15.27593168,"ECCENTRICITY":4.093e-5,"INCLINATION":42.9962,"RA_OF_ASC_NODE":276.4153,"ARG_OF_PERICENTER":51.3736,"MEAN_ANOMALY":308.7153,"EPHEMERIS_TYPE":0,"CLASSIFICATION_TYPE":"U","NORAD_CAT_ID":66523,"ELEMENT_SET_NO":999,"REV_AT_EPOCH":1715,"BSTAR":0.00087780264,"MEAN_MOTION_DOT":0.00023981,"MEAN_MOTION_DDOT":0},{"OBJECT_NAME":"KUIPER-00209","OBJECT_ID":"2026-030N","EPOCH":"2026-03-09T14:49:43.575744","MEAN_MOTION":15.3016195,"ECCENTRICITY":0.0012191,"INCLINATION":51.8838,"RA_OF_ASC_NODE":220.0775,"ARG_OF_PERICENTER":59.1967,"MEAN_ANOMALY":301.0215,"EPHEMERIS_TYPE":0,"CLASSIFICATION_TYPE":"U","NORAD_CAT_ID":67776,"ELEMENT_SET_NO":999,"REV_AT_EPOCH":507,"BSTAR":0.0011963,"MEAN_MOTION_DOT":0.00035298,"MEAN_MOTION_DDOT":0}]
